FENGYUN 1C DEB          
1 32169U 99025CTP 17345.82146438  .00001723  00000-0  84111-3 0  9993
2 32169  98.5719 196.3490 0077158  45.7432 315.0042 14.17717807549115
